{
    "CCSDS_OMM_VERS": "3.0",
    "COMMENT": "GENERATED VIA SPACE-TRACK.ORG API",
    "CREATION_DATE": "2025-11-22T22:56:46",
    "ORIGINATOR": "18 SPCS",
    "OBJECT_NAME": "BEIDOU 3M15",
    "OBJECT_ID": "2018-078A",
    "CENTER_NAME": "EARTH",
    "REF_FRAME": "TEME",
    "TIME_SYSTEM": "UTC",
    "MEAN_ELEMENT_THEORY": "SGP4",
    "EPOCH": "2025-11-22T07:04:19.346304",
    "MEAN_MOTION": "1.86232396",
    "ECCENTRICITY": "0.00067610",
    "INCLINATION": "54.2808",
    "RA_OF_ASC_NODE": "307.2361",
    "ARG_OF_PERICENTER": "17.6776",
    "MEAN_ANOMALY": "342.3362",
    "EPHEMERIS_TYPE": "0",
    "CLASSIFICATION_TYPE": "U",
    "NORAD_CAT_ID": "43647",
    "ELEMENT_SET_NO": "999",
    "REV_AT_EPOCH": "4830",
    "BSTAR": "0.00000000000000",
    "MEAN_MOTION_DOT": "-0.00000059",
    "MEAN_MOTION_DDOT": "0.0000000000000",
    "SEMIMAJOR_AXIS": "27906.049",
    "PERIOD": "773.227",
    "APOAPSIS": "21546.781",
    "PERIAPSIS": "21509.047",
    "OBJECT_TYPE": "PAYLOAD",
    "RCS_SIZE": "LARGE",
    "COUNTRY_CODE": "PRC",
    "LAUNCH_DATE": "2018-10-15",
    "SITE": "XSC",
    "DECAY_DATE": null,
    "FILE": "4894382",
    "GP_ID": "303273038",
    "TLE_LINE0": "0 BEIDOU 3M15",
    "TLE_LINE1": "1 43647U 18078A   25326.29466836 -.00000059  00000-0  00000+0 0  9994",
    "TLE_LINE2": "2 43647  54.2808 307.2361 0006761  17.6776 342.3362  1.86232396 48307"
}